{
  "type": "FeatureCollection",
  "features": [
    {
      "type": "Feature",
      "properties": {
        "norad_id": 40730,
        "name": "GPS BIIF-10 (PRN 08)",
        "group": "gps-ops",
        "lat": 49.88404513318236,
        "lon": 35.789202837383755,
        "alt_km": 20135.19309392066,
        "timestamp": "2025-12-10T21:43:22.346965+00:00",
        "meta_object_name": "GPS BIIF-10 (PRN 08)",
        "meta_object_id": "2015-033A",
        "meta_epoch": "2025-12-10T06:11:03.123456",
        "meta_mean_motion": 2.00565727,
        "meta_eccentricity": 0.01108197,
        "meta_inclination": 54.1328,
        "meta_ra_of_asc_node": 274.875,
        "meta_arg_of_pericenter": 26.7522,
        "meta_mean_anomaly": 333.8328,
        "meta_ephemeris_type": 0,
        "meta_classification_type": "U",
        "meta_norad_cat_id": 40730,
        "meta_element_set_no": 999,
        "meta_rev_at_epoch": 7620,
        "meta_bstar": 0,
        "meta_mean_motion_dot": -5.9e-07,
        "meta_mean_motion_ddot": 0,
        "tle_line1": "1 40730U 15033A   25344.25767504 -.00000059  00000+0  00000+0 0  9993",
        "tle_line2": "2 40730  54.1328 274.8750 0110819  26.7522 333.8328  2.00565727 76205"
      },
      "geometry": {
        "type": "Point",
        "coordinates": [
          35.789202837383755,
          49.88404513318236
        ]
      }
    },
    {
      "type": "Feature",
      "properties": {
        "norad_id": 41019,
        "name": "GPS BIIF-11 (PRN 10)",
        "group": "gps-ops",
        "lat": 48.43855881574711,
        "lon": 85.5701397510577,
        "alt_km": 20462.506335365855,
        "timestamp": "2025-12-10T21:43:22.346976+00:00",
        "meta_object_name": "GPS BIIF-11 (PRN 10)",
        "meta_object_id": "2015-062A",
        "meta_epoch": "2025-12-09T07:40:39.423936",
        "meta_mean_motion": 2.00567031,
        "meta_eccentricity": 0.0110732,
        "meta_inclination": 56.8297,
        "meta_ra_of_asc_node": 38.1346,
        "meta_arg_of_pericenter": 229.8556,
        "meta_mean_anomaly": 129.2222,
        "meta_ephemeris_type": 0,
        "meta_classification_type": "U",
        "meta_norad_cat_id": 41019,
        "meta_element_set_no": 999,
        "meta_rev_at_epoch": 7402,
        "meta_bstar": 0,
        "meta_mean_motion_dot": -8.3e-07,
        "meta_mean_motion_ddot": 0,
        "tle_line1": "1 41019U 15062A   25343.31990074 -.00000083  00000+0  00000+0 0  9999",
        "tle_line2": "2 41019  56.8297  38.1346 0110732 229.8556 129.2222  2.00567031 74027"
      },
      "geometry": {
        "type": "Point",
        "coordinates": [
          85.5701397510577,
          48.43855881574711
        ]
      }
    },
    {
      "type": "Feature",
      "properties": {
        "norad_id": 41328,
        "name": "GPS BIIF-12 (PRN 32)",
        "group": "gps-ops",
        "lat": 4.136247061438312,
        "lon": 99.78232964060038,
        "alt_km": 20308.516991719513,
        "timestamp": "2025-12-10T21:43:22.346988+00:00",
        "meta_object_name": "GPS BIIF-12 (PRN 32)",
        "meta_object_id": "2016-007A",
        "meta_epoch": "2025-12-10T09:35:17.707200",
        "meta_mean_motion": 2.005608,
        "meta_eccentricity": 0.00920502,
        "meta_inclination": 55.4049,
        "meta_ra_of_asc_node": 96.9499,
        "meta_arg_of_pericenter": 243.5192,
        "meta_mean_anomaly": 115.5235,
        "meta_ephemeris_type": 0,
        "meta_classification_type": "U",
        "meta_norad_cat_id": 41328,
        "meta_element_set_no": 999,
        "meta_rev_at_epoch": 7205,
        "meta_bstar": 0,
        "meta_mean_motion_dot": 3e-08,
        "meta_mean_motion_ddot": 0,
        "tle_line1": "1 41328U 16007A   25344.39951050  .00000003  00000+0  00000+0 0  9993",
        "tle_line2": "2 41328  55.4049  96.9499 0092050 243.5192 115.5235  2.00560800 72052"
      },
      "geometry": {
        "type": "Point",
        "coordinates": [
          99.78232964060038,
          4.136247061438312
        ]
      }
    },
    {
      "type": "Feature",
      "properties": {
        "norad_id": 43873,
        "name": "GPS BIII-1  (PRN 04)",
        "group": "gps-ops",
        "lat": -54.129006565375335,
        "lon": -8.996714205160508,
        "alt_km": 20145.94958528133,
        "timestamp": "2025-12-10T21:43:22.346999+00:00",
        "meta_object_name": "GPS BIII-1  (PRN 04)",
        "meta_object_id": "2018-109A",
        "meta_epoch": "2025-12-08T13:41:32.071776",
        "meta_mean_motion": 2.00553358,
        "meta_eccentricity": 0.003721,
        "meta_inclination": 55.5654,
        "meta_ra_of_asc_node": 99.7112,
        "meta_arg_of_pericenter": 194.8122,
        "meta_mean_anomaly": 178.3596,
        "meta_ephemeris_type": 0,
        "meta_classification_type": "U",
        "meta_norad_cat_id": 43873,
        "meta_element_set_no": 999,
        "meta_rev_at_epoch": 5125,
        "meta_bstar": 0,
        "meta_mean_motion_dot": 6e-08,
        "meta_mean_motion_ddot": 0,
        "tle_line1": "1 43873U 18109A   25342.57051009  .00000006  00000+0  00000+0 0  9991",
        "tle_line2": "2 43873  55.5654  99.7112 0037210 194.8122 178.3596  2.00553358 51259"
      },
      "geometry": {
        "type": "Point",
        "coordinates": [
          -8.996714205160508,
          -54.129006565375335
        ]
      }
    },
    {
      "type": "Feature",
      "properties": {
        "norad_id": 44506,
        "name": "GPS BIII-2  (PRN 18)",
        "group": "gps-ops",
        "lat": 20.21777530287683,
        "lon": 144.07356824126398,
        "alt_km": 20067.7141428174,
        "timestamp": "2025-12-10T21:43:22.347010+00:00",
        "meta_object_name": "GPS BIII-2  (PRN 18)",
        "meta_object_id": "2019-056A",
        "meta_epoch": "2025-12-10T10:16:28.629696",
        "meta_mean_motion": 2.00566128,
        "meta_eccentricity": 0.00577597,
        "meta_inclination": 55.7221,
        "meta_ra_of_asc_node": 338.6437,
        "meta_arg_of_pericenter": 198.4903,
        "meta_mean_anomaly": 332.7667,
        "meta_ephemeris_type": 0,
        "meta_classification_type": "U",
        "meta_norad_cat_id": 44506,
        "meta_element_set_no": 999,
        "meta_rev_at_epoch": 4628,
        "meta_bstar": 0,
        "meta_mean_motion_dot": -8.6e-07,
        "meta_mean_motion_ddot": 0,
        "tle_line1": "1 44506U 19056A   25344.42810914 -.00000086  00000+0  00000+0 0  9990",
        "tle_line2": "2 44506  55.7221 338.6437 0057759 198.4903 332.7667  2.00566128 46288"
      },
      "geometry": {
        "type": "Point",
        "coordinates": [
          144.07356824126398,
          20.21777530287683
        ]
      }
    },
    {
      "type": "Feature",
      "properties": {
        "norad_id": 45854,
        "name": "GPS BIII-3  (PRN 23)",
        "group": "gps-ops",
        "lat": 55.47319847783174,
        "lon": 142.47255826374263,
        "alt_km": 20214.87036584278,
        "timestamp": "2025-12-10T21:43:22.347037+00:00",
        "meta_object_name": "GPS BIII-3  (PRN 23)",
        "meta_object_id": "2020-041A",
        "meta_epoch": "2025-12-10T06:22:51.669120",
        "meta_mean_motion": 2.00561869,
        "meta_eccentricity": 0.0060434,
        "meta_inclination": 56.5455,
        "meta_ra_of_asc_node": 36.2815,
        "meta_arg_of_pericenter": 203.3429,
        "meta_mean_anomaly": 154.8897,
        "meta_ephemeris_type": 0,
        "meta_classification_type": "U",
        "meta_norad_cat_id": 45854,
        "meta_element_set_no": 999,
        "meta_rev_at_epoch": 4024,
        "meta_bstar": 0,
        "meta_mean_motion_dot": -9e-07,
        "meta_mean_motion_ddot": 0,
        "tle_line1": "1 45854U 20041A   25344.26587580 -.00000090  00000+0  00000+0 0  9990",
        "tle_line2": "2 45854  56.5455  36.2815 0060434 203.3429 154.8897  2.00561869 40242"
      },
      "geometry": {
        "type": "Point",
        "coordinates": [
          142.47255826374263,
          55.47319847783174
        ]
      }
    },
    {
      "type": "Feature",
      "properties": {
        "norad_id": 46826,
        "name": "GPS BIII-4  (PRN 14)",
        "group": "gps-ops",
        "lat": 49.54721955547013,
        "lon": -83.18438118258872,
        "alt_km": 20293.242492880487,
        "timestamp": "2025-12-10T21:43:22.347050+00:00",
        "meta_object_name": "GPS BIII-4  (PRN 14)",
        "meta_object_id": "2020-078A",
        "meta_epoch": "2025-12-10T01:06:32.863680",
        "meta_mean_motion": 2.00566796,
        "meta_eccentricity": 0.00646005,
        "meta_inclination": 54.0157,
        "meta_ra_of_asc_node": 218.4503,
        "meta_arg_of_pericenter": 203.3563,
        "meta_mean_anomaly": 327.1751,
        "meta_ephemeris_type": 0,
        "meta_classification_type": "U",
        "meta_norad_cat_id": 46826,
        "meta_element_set_no": 999,
        "meta_rev_at_epoch": 3771,
        "meta_bstar": 0,
        "meta_mean_motion_dot": 7e-08,
        "meta_mean_motion_ddot": 0,
        "tle_line1": "1 46826U 20078A   25344.04621370  .00000007  00000+0  00000+0 0  9999",
        "tle_line2": "2 46826  54.0157 218.4503 0064600 203.3563 327.1751  2.00566796 37716"
      },
      "geometry": {
        "type": "Point",
        "coordinates": [
          -83.18438118258872,
          49.54721955547013
        ]
      }
    }
  ]
}